[{"OBJECT_NAME":"STARLINK-3449","OBJECT_ID":"2022-016AH","EPOCH":"2026-03-09T23:09:30.014208","MEAN_MOTION":15.08832097,"ECCENTRICITY":0.00013727,"INCLINATION":53.218,"RA_OF_ASC_NODE":317.8855,"ARG_OF_PERICENTER":87.9705,"MEAN_ANOMALY":272.1444,"EPHEMERIS_TYPE":0,"CLASSIFICATION_TYPE":"U","NORAD_CAT_ID":51745,"ELEMENT_SET_NO":999,"REV_AT_EPOCH":22360,"BSTAR":3.8558592e-5,"MEAN_MOTION_DOT":3.26e-6,"MEAN_MOTION_DDOT":0},{"OBJECT_NAME":"TIANPING 2C","OBJECT_ID":"2022-032D","EPOCH":"2026-03-09T22:24:23.522112","MEAN_MOTION":15.10225163,"ECCENTRICITY":0.00079422,"INCLINATION":97.5961,"RA_OF_ASC_NODE":122.1196,"ARG_OF_PERICENTER":128.8925,"MEAN_ANOMALY":231.3013,"EPHEMERIS_TYPE":0,"CLASSIFICATION_TYPE":"U","NORAD_CAT_ID":52156,"ELEMENT_SET_NO":999,"REV_AT_EPOCH":21586,"BSTAR":0.00036090623,"MEAN_MOTION_DOT":5.841e-5,"MEAN_MOTION_DDOT":0}]
